EUTELSAT 7A             
1 28187U 04008A   25317.14794360  .00000103  00000+0  00000+0 0  9992
2 28187   5.2819  74.5820 0001569 202.6795  49.3122  1.00271863 79185
EUTELSAT 174A           
1 28924U 05052A   25317.13586403  .00000010  00000+0  00000+0 0  9994
2 28924   3.6721  79.1970 0006559 156.2124  40.0373  1.00273322 50164
EUTELSAT HOTBIRD 13B    
1 29270U 06032A   25317.24682509  .00000155  00000+0  00000+0 0  9994
2 29270   1.1027  84.6028 0003572 144.3436 305.6349  1.00269340 45142
EUTELSAT HOTBIRD 13C    
1 33459U 08065A   25317.19581405 -.00000210  00000+0  00000+0 0  9996
2 33459   2.3939  81.7336 0001370 109.2816 268.0163  1.00055045 45182
EUTELSAT 36B            
1 36101U 09065A   25317.17896471  .00000110  00000+0  00000+0 0  9992
2 36101   0.0494  18.6264 0006310 218.1419 290.7048  1.00271872 58543
EUTELSAT KA-SAT 9A      
1 37258U 10069A   25316.17186251  .00000058  00000+0  00000+0 0  9990
2 37258   0.0626 314.7653 0002260 224.4595 303.2834  1.00269253 41838
EUTELSAT 7 WEST A       
1 37816U 11051A   25317.23885171 -.00000062  00000+0  00000+0 0  9993
2 37816   0.0672   9.9382 0006492 206.1860 275.1705  1.00268645 51710
EUTELSAT 16A            
1 37836U 11057A   25317.24344507  .00000102  00000+0  00000+0 0  9999
2 37836   0.0642   8.1040 0005791 230.3861 277.7773  1.00272058  5166
